{
  "type": "FeatureCollection",
  "features": [
    {
      "type": "Feature",
      "properties": {
        "norad_id": 32113,
        "name": "FENGYUN 1C DEB",
        "group": "fengyun-1c-debris",
        "lat": -44.74122200518169,
        "lon": 40.82605441316417,
        "alt_km": 993.8862323242383,
        "timestamp": "2025-12-23T05:02:12.316291+00:00",
        "meta_object_name": "FENGYUN 1C DEB",
        "meta_object_id": "1999-025CRF",
        "meta_epoch": "2025-12-22T20:39:08.544384",
        "meta_mean_motion": 13.9458115,
        "meta_eccentricity": 0.02384613,
        "meta_inclination": 99.0255,
        "meta_ra_of_asc_node": 31.4218,
        "meta_arg_of_pericenter": 198.943,
        "meta_mean_anomaly": 160.2746,
        "meta_ephemeris_type": 0,
        "meta_classification_type": "U",
        "meta_norad_cat_id": 32113,
        "meta_element_set_no": 999,
        "meta_rev_at_epoch": 63027,
        "meta_bstar": 0.00063270189,
        "meta_mean_motion_dot": 1.027e-05,
        "meta_mean_motion_ddot": 0,
        "tle_line1": "1 32113U 99025CRF 25356.86051556  .00001027  00000+0  63270-3 0  9992",
        "tle_line2": "2 32113  99.0255  31.4218 0238461 198.9430 160.2746 13.94581150630270"
      },
      "geometry": {
        "type": "Point",
        "coordinates": [
          40.82605441316417,
          -44.74122200518169
        ]
      }
    },
    {
      "type": "Feature",
      "properties": {
        "norad_id": 32114,
        "name": "FENGYUN 1C DEB",
        "group": "fengyun-1c-debris",
        "lat": -54.36196961470302,
        "lon": 130.78826506643466,
        "alt_km": 613.5126857779151,
        "timestamp": "2025-12-23T05:02:12.316301+00:00",
        "meta_object_name": "FENGYUN 1C DEB",
        "meta_object_id": "1999-025CRG",
        "meta_epoch": "2025-12-06T13:19:21.641376",
        "meta_mean_motion": 14.76489439,
        "meta_eccentricity": 0.00447682,
        "meta_inclination": 99.9287,
        "meta_ra_of_asc_node": 96.1919,
        "meta_arg_of_pericenter": 3.5911,
        "meta_mean_anomaly": 356.5605,
        "meta_ephemeris_type": 0,
        "meta_classification_type": "U",
        "meta_norad_cat_id": 32114,
        "meta_element_set_no": 999,
        "meta_rev_at_epoch": 65638,
        "meta_bstar": 0.0040574802,
        "meta_mean_motion_dot": 0.0002877,
        "meta_mean_motion_ddot": 0,
        "tle_line1": "1 32114U 99025CRG 25340.55511159  .00028770  00000+0  40575-2 0  9998",
        "tle_line2": "2 32114  99.9287  96.1919 0044768   3.5911 356.5605 14.76489439656383"
      },
      "geometry": {
        "type": "Point",
        "coordinates": [
          130.78826506643466,
          -54.36196961470302
        ]
      }
    },
    {
      "type": "Feature",
      "properties": {
        "norad_id": 32117,
        "name": "FENGYUN 1C DEB",
        "group": "fengyun-1c-debris",
        "lat": -75.71481631418081,
        "lon": 78.88083806942234,
        "alt_km": 834.8190409575409,
        "timestamp": "2025-12-23T05:02:12.316312+00:00",
        "meta_object_name": "FENGYUN 1C DEB",
        "meta_object_id": "1999-025CRK",
        "meta_epoch": "2025-12-22T09:10:09.164064",
        "meta_mean_motion": 14.23981803,
        "meta_eccentricity": 0.00278217,
        "meta_inclination": 98.6161,
        "meta_ra_of_asc_node": 41.5233,
        "meta_arg_of_pericenter": 65.2411,
        "meta_mean_anomaly": 295.1659,
        "meta_ephemeris_type": 0,
        "meta_classification_type": "U",
        "meta_norad_cat_id": 32117,
        "meta_element_set_no": 999,
        "meta_rev_at_epoch": 94934,
        "meta_bstar": 0.00096836354,
        "meta_mean_motion_dot": 2.189e-05,
        "meta_mean_motion_ddot": 0,
        "tle_line1": "1 32117U 99025CRK 25356.38205051  .00002189  00000+0  96836-3 0  9998",
        "tle_line2": "2 32117  98.6161  41.5233 0027821  65.2411 295.1659 14.23981803949349"
      },
      "geometry": {
        "type": "Point",
        "coordinates": [
          78.88083806942234,
          -75.71481631418081
        ]
      }
    },
    {
      "type": "Feature",
      "properties": {
        "norad_id": 32119,
        "name": "FENGYUN 1C DEB",
        "group": "fengyun-1c-debris",
        "lat": -49.746992381657016,
        "lon": 28.72549155300052,
        "alt_km": 946.6794376027901,
        "timestamp": "2025-12-23T05:02:12.316322+00:00",
        "meta_object_name": "FENGYUN 1C DEB",
        "meta_object_id": "1999-025CRM",
        "meta_epoch": "2025-12-21T09:08:50.463168",
        "meta_mean_motion": 14.02839478,
        "meta_eccentricity": 0.00860891,
        "meta_inclination": 99.8866,
        "meta_ra_of_asc_node": 218.6288,
        "meta_arg_of_pericenter": 29.2524,
        "meta_mean_anomaly": 331.342,
        "meta_ephemeris_type": 0,
        "meta_classification_type": "U",
        "meta_norad_cat_id": 32119,
        "meta_element_set_no": 999,
        "meta_rev_at_epoch": 93849,
        "meta_bstar": 0.00056371909,
        "meta_mean_motion_dot": 8.5e-06,
        "meta_mean_motion_ddot": 0,
        "tle_line1": "1 32119U 99025CRM 25355.38113962  .00000850  00000+0  56372-3 0  9992",
        "tle_line2": "2 32119  99.8866 218.6288 0086089  29.2524 331.3420 14.02839478938499"
      },
      "geometry": {
        "type": "Point",
        "coordinates": [
          28.72549155300052,
          -49.746992381657016
        ]
      }
    },
    {
      "type": "Feature",
      "properties": {
        "norad_id": 32123,
        "name": "FENGYUN 1C DEB",
        "group": "fengyun-1c-debris",
        "lat": -8.568016290307197,
        "lon": -15.490095564744184,
        "alt_km": 656.720340615745,
        "timestamp": "2025-12-23T05:02:12.316332+00:00",
        "meta_object_name": "FENGYUN 1C DEB",
        "meta_object_id": "1999-025CRR",
        "meta_epoch": "2025-12-22T16:56:39.079968",
        "meta_mean_motion": 14.61493887,
        "meta_eccentricity": 0.01595239,
        "meta_inclination": 98.9413,
        "meta_ra_of_asc_node": 165.3246,
        "meta_arg_of_pericenter": 262.5375,
        "meta_mean_anomaly": 158.3118,
        "meta_ephemeris_type": 0,
        "meta_classification_type": "U",
        "meta_norad_cat_id": 32123,
        "meta_element_set_no": 999,
        "meta_rev_at_epoch": 71520,
        "meta_bstar": 0.00027658295,
        "meta_mean_motion_dot": 1.576e-05,
        "meta_mean_motion_ddot": 0,
        "tle_line1": "1 32123U 99025CRR 25356.70600787  .00001576  00000+0  27658-3 0  9991",
        "tle_line2": "2 32123  98.9413 165.3246 0159523 262.5375 158.3118 14.61493887715202"
      },
      "geometry": {
        "type": "Point",
        "coordinates": [
          -15.490095564744184,
          -8.568016290307197
        ]
      }
    },
    {
      "type": "Feature",
      "properties": {
        "norad_id": 32125,
        "name": "FENGYUN 1C DEB",
        "group": "fengyun-1c-debris",
        "lat": -59.8282965800516,
        "lon": -5.357863513046918,
        "alt_km": 546.3518384862737,
        "timestamp": "2025-12-23T05:02:12.316342+00:00",
        "meta_object_name": "FENGYUN 1C DEB",
        "meta_object_id": "1999-025CRT",
        "meta_epoch": "2025-12-14T04:03:21.187008",
        "meta_mean_motion": 14.69917548,
        "meta_eccentricity": 0.0174033,
        "meta_inclination": 99.062,
        "meta_ra_of_asc_node": 328.6692,
        "meta_arg_of_pericenter": 318.7989,
        "meta_mean_anomaly": 40.0184,
        "meta_ephemeris_type": 0,
        "meta_classification_type": "U",
        "meta_norad_cat_id": 32125,
        "meta_element_set_no": 999,
        "meta_rev_at_epoch": 70544,
        "meta_bstar": 0.002785531,
        "meta_mean_motion_dot": 0.00021057,
        "meta_mean_motion_ddot": 0,
        "tle_line1": "1 32125U 99025CRT 25348.16899522  .00021057  00000+0  27855-2 0  9995",
        "tle_line2": "2 32125  99.0620 328.6692 0174033 318.7989  40.0184 14.69917548705441"
      },
      "geometry": {
        "type": "Point",
        "coordinates": [
          -5.357863513046918,
          -59.8282965800516
        ]
      }
    },
    {
      "type": "Feature",
      "properties": {
        "norad_id": 32126,
        "name": "FENGYUN 1C DEB",
        "group": "fengyun-1c-debris",
        "lat": 56.18750899790299,
        "lon": 66.3720541155063,
        "alt_km": 1093.997747210792,
        "timestamp": "2025-12-23T05:02:12.316352+00:00",
        "meta_object_name": "FENGYUN 1C DEB",
        "meta_object_id": "1999-025CRU",
        "meta_epoch": "2025-12-14T22:11:18.681792",
        "meta_mean_motion": 13.56802944,
        "meta_eccentricity": 0.02807648,
        "meta_inclination": 99.1097,
        "meta_ra_of_asc_node": 224.8335,
        "meta_arg_of_pericenter": 249.9124,
        "meta_mean_anomaly": 107.16,
        "meta_ephemeris_type": 0,
        "meta_classification_type": "U",
        "meta_norad_cat_id": 32126,
        "meta_element_set_no": 999,
        "meta_rev_at_epoch": 61744,
        "meta_bstar": 0.001056147,
        "meta_mean_motion_dot": 9.24e-06,
        "meta_mean_motion_ddot": 0,
        "tle_line1": "1 32126U 99025CRU 25348.92452178  .00000924  00000+0  10561-2 0  9998",
        "tle_line2": "2 32126  99.1097 224.8335 0280764 249.9124 107.1600 13.56802944617445"
      },
      "geometry": {
        "type": "Point",
        "coordinates": [
          66.3720541155063,
          56.18750899790299
        ]
      }
    }
  ]
}